ONEWEB-0613             
1 56071U 23043AB  23261.81972606 -.00000540  00000+0 -14690-2 0  9996
2 56071  87.8946  98.7884 0002100  86.9346 273.2024 13.15548530 24647
ONEWEB-0630             
1 56072U 23043AC  23261.81550003 -.00000435  00000+0 -11887-2 0  9998
2 56072  87.9054  98.7842 0002185  79.6715 280.4661 13.15548025 24630
ONEWEB-0632             
1 56073U 23043AD  23261.81127294 -.00000576  00000+0 -15635-2 0  9992
2 56073  87.8948  98.8046 0002031 104.3133 255.8223 13.15547586 24630
ONEWEB-0633             
1 56074U 23043AE  23261.57890212 -.00000127  00000+0 -37130-3 0  9990
2 56074  87.8939  98.8483 0002428  77.8603 282.2799 13.15545652 24580
ONEWEB-0634             
1 56075U 23043AF  23261.78904867  .00000006  00000+0 -18324-4 0  9996
2 56075  87.8943  98.8003 0001679  67.9320 292.1988 13.15549727 24607
ONEWEB-0635             
1 56076U 23043AG  23261.62961001  .00000411  00000+0  10570-2 0  9995
2 56076  87.8923  98.9097 0001915 105.0122 255.1221 13.15550067 24616
ONEWEB-0636             
1 56077U 23043AH  23261.62116917  .00000447  00000+0  11540-2 0  9991
2 56077  87.8932  98.8732 0001764 104.4108 255.7219 13.15550703 24598
ONEWEB-0637             
1 56078U 23043AJ  23261.84509648  .00000167  00000+0  40833-3 0  9990
2 56078  87.8899  98.7852 0001613 102.0396 258.0915 13.15551949 24647
